[
    {
        "Altitude(m)": 611967.171603087,
        "Argument of Periapsis(deg)": 0.0,
        "Eccentricity": 0.0,
        "Inclination(deg)": 60.0,
        "Latitude(deg)": 59.14013935994191,
        "Longitude(deg)": -163.9077580098238,
        "Mean Anomaly(deg)": 98.18179999999997,
        "RAAN(deg)": 190.0,
        "Satellite Name": "Test1 842",
        "Satellite Number": 842,
        "Semi-Major Axis(m)": 6980739.136638005,
        "Time(s)": 0
    },
    {
        "Altitude(m)": 611934.3707298336,
        "Argument of Periapsis(deg)": 0.00010418945913296404,
        "Eccentricity": 0.0,
        "Inclination(deg)": 60.0,
        "Latitude(deg)": 58.98649938221428,
        "Longitude(deg)": -162.78451415281398,
        "Mean Anomaly(deg)": 98.80190614546183,
        "RAAN(deg)": 189.99957995086027,
        "Satellite Name": "Test1 842",
        "Satellite Number": 842,
        "Semi-Major Axis(m)": 6980739.136638005,
        "Time(s)": 10
    }
]